ONEWEB-0338             
1 49204U 21083U   24074.50462163  .00000118  00000+0  25883-3 0  9995
2 49204  87.9130  78.5808 0001610  77.9166 282.2147 13.20772529127957
ONEWEB-0339             
1 49205U 21083V   24075.18934675  .00000173  00000+0  43777-3 0  9996
2 49205  87.8942 124.2711 0001857 102.8291 257.3046 13.13468932124028
ONEWEB-0340             
1 49206U 21083W   24074.73601393  .00000071  00000+0  14651-3 0  9991
2 49206  87.9200 139.5546 0002072 105.4432 254.6929 13.18684428121312
ONEWEB-0341             
1 49207U 21083X   24074.44043585  .00000122  00000+0  27763-3 0  9998
2 49207  87.9201 139.6284 0001629 123.7852 236.3435 13.18685496121292
ONEWEB-0342             
1 49208U 21083Y   24075.04121967 -.00000415  00000+0 -10522-2 0  9998
2 49208  87.9129  78.4905 0001645  83.6152 276.5168 13.20775305129296
ONEWEB-0343             
1 49209U 21083Z   24074.73918722 -.00000009  00000+0 -54688-4 0  9999
2 49209  87.9192 139.5818 0001518 117.3111 242.8176 13.18684969121387
ONEWEB-0344             
1 49210U 21083AA  24074.39423809 -.00000229  00000+0 -66172-3 0  9994
2 49210  87.8946 124.4438 0002204 103.4383 256.6991 13.13469656122621
